LEMUR-2-PETERG          
1 42841U 17042S   26068.48235713  .00023240  00000+0  81076-3 0  9993
2 42841  97.3980 253.6596 0003700 341.6938  18.4169 15.29611459473171
STARLINK-32250          
1 60425U 24144A   26068.67802953  .00002873  00000+0  10924-3 0  9992
2 60425  53.1607 217.4507 0001380  92.2396 267.8763 15.30154966 88409
